#dP2022  9 25  6  0  0.00000000      96 __u+U ITR00 EXT  IAC
## 2229  21600.00000000   900.00000000 59847 0.2500000000000
+  117   C06C07C08C09C10C11C12C13C14C16C19C20C21C22C23C24C25
+        C26C27C28C29C30C32C33C34C35C36C37C38C39C40C41C42C43
+        C44C45C46E01E02E03E04E05E07E08E09E10E11E12E13E14E15
+        E18E19E21E24E25E26E27E30E31E33E34E36G01G02G03G04G05
+        G06G07G08G09G10G11G12G13G14G15G16G17G18G19G20G21G22
+        G23G24G25G26G27G28G29G30G31G32J02J03R01R02R03R04R05
+        R07R08R09R11R12R13R14R15R17R18R19R20R21R24R25  0  0
++        11  9 10 12 10  8  9 10  9  9  9  9  8  9  8  8  9
++         7 10 10  8  9  9  8  9  8  8  9  9 11  9  8  9  9
++         9  8  8  9  8  8  8  8  8  8  8  8  8  7  9  9  8
++         8  7  8  8  8  8  8  8  7  8  8  7  8  7  8  9  7
++         8  8  7  8  8  7  6  8  9  8  8  8  7  8  7  8  8
++         6  8  7  7  8  8  8  8  7  8  9  9  8  8 10  8  9
++         8  8 10  8  8  7  9  9  8  9  8 11  9  7  9  0  0
%c M  cc GPS ccc cccc cccc cccc cccc ccccc ccccc ccccc ccccc
%c cc cc ccc ccc cccc cccc cccc cccc ccccc ccccc ccccc ccccc
%f  0.0000000  0.000000000  0.00000000000  0.000000000000000
%f  0.0000000  0.000000000  0.00000000000  0.000000000000000
%i    0    0    0    0      0      0      0      0         0
%i    0    0    0    0      0      0      0      0         0
/* IAC                                ULTRA-RAPID PREDICTION
/* S/V CLOCKS ARE ALIGNED TO GNSS TIME                      
/* G:C1WC2W R:C1PC2P E:C1XC5X C:C2IC6I J:C1CC2S             
/* PCV:IGS14_2218 OL/AL:FES2004  NONE     YN ORB:CoN CLK:CoN
*  2022 09 26  4 45  0.00000000
PC06 -10351.757709  40673.645946   5200.656014    920.299548
PC07  -5505.611414  27610.921599 -31305.556504   -192.524315
PC08 -19349.347305  25198.327534  27603.790513    480.623149
PC09  -5710.486742  41829.407977  -4021.141138   -852.568869
PC10   2460.212333  30078.835368 -28970.213889     91.976390
PC11  15324.681595  -6061.864961  22593.891594   -387.083661
PC12  12575.734197  14431.173268  20335.116636   -504.918845
PC13 -10347.852074  26101.349241  31480.071915     90.613628
PC14  22677.556810   1084.697153 -16181.486178    677.927887
PC16 -12716.595819  39250.069715   9532.234263    134.884875
PC19 -16517.643189   6941.467510  21413.869644   -738.341434
PC20 -24944.878409  -7678.771741   9916.101487    787.700713
PC21  18879.200579  18742.171182   8403.870079   -474.413607
PC22   1813.674012  18218.910021  21043.274374   -788.323583
PC23   9836.946777 -19362.270265  17537.442555   -262.459039
PC24  23601.021085   -200.531156 -14915.312440   -321.406815
PC25  23239.634020 -15203.714545   2862.145196    393.518765
PC26  11074.970172  12306.582480 -22476.827520    -12.831640
PC27  -8879.085708 -22122.832299 -14522.100881     26.597584
PC28   2636.774681 -27737.985740   1653.047696     17.271767
PC29 -12690.600431  17253.368917 -17891.976313     18.571345
PC30 -15716.879342  -4070.776498 -22701.584146      0.130420
PC32 -18979.378168 -18625.115957  -8470.995693   -786.386316
PC33  16552.637804  -6990.139641 -21352.594570   -757.198204
PC34  15851.706061   2802.837921  22785.747593      3.137650
PC35  -2590.945808  27635.979158  -3022.313161     13.919755
PC36 -23837.440318  14318.431784  -2266.083312   -389.589539
PC37  -9453.791226 -13367.560144  22615.727595   -313.469644
PC38 -25360.399064  26412.676458  20749.772323     26.837451
PC39 -13284.974202  37352.441623  14651.912762     -0.516345
PC40  -9314.994222  21627.362310 -34951.663507     -4.865901
PC41  -1324.122984 -18046.786771 -21200.624029   -114.011581
PC42  25045.681390   8526.481257  -8812.812214   -362.743700
PC43  13118.274279 -16503.145426  18268.284695     16.275155
PC44   9623.145411  21975.227343  14266.283690     62.056634
PC45  -9505.638233  19243.608457 -17814.414259     -2.335593
PC46 -24245.261834   1627.033065  13691.794847     -2.322402
PE01  11433.805527  15804.523436 -22255.554509   -535.246101
PE02 -11607.964407 -15772.673357  22196.590856    326.995424
PE03 -12925.266796 -26615.908386  -1061.502275   -603.616020
PE04  20223.033270  14411.288449 -16109.399583  -1123.506652
PE05   2140.764938 -23419.726648 -17979.298864   -140.409382
PE07 -15721.145880   6664.078227  24178.399619   -708.355284
PE08 -20185.520137 -14342.920369  16220.833101   -605.051909
PE09  15633.528197  -6525.438766 -24275.815643   -671.728930
PE10  19958.752251  -6464.207096  20879.016255   -479.422815
PE11  20693.199928 -16385.637324  13383.817221   2061.952855
PE12  16266.069937   3910.639536  24414.355593   -189.444671
PE13 -20706.089837  15754.216449 -14109.295270    430.621658
PE14 -19532.648938 -21525.638339 -13886.875991     10.301346
PE15 -16092.137864  -4070.238083 -24504.401568    718.004760
PE18  12959.477767  18226.967855   8098.407831   -932.703611
PE19  11181.298231  27175.849029   3566.481041  -4430.255019
PE21  -9610.022269  15481.628175 -23318.505070   -759.897177
PE24  27224.259009  -5584.479654  10217.977341   -857.512503
PE25   9945.842175 -15414.386929  23244.369470   -588.630719
PE26 -12581.286255  26252.882925   5315.458715  -1656.383023
PE27 -26685.908948   6307.651399 -11124.197824   -400.903673
PE30 -27518.755514  -7113.971623   8238.487701   -866.948803
PE31  27901.407435   6468.164550  -7467.050730   -504.380234
PE33   2019.637838  21366.488612  20385.052350   -454.095576
PE34  -2200.075781 -21266.103417 -20487.414349     -6.388587
PE36  13133.549986 -26151.289751  -4462.518844   -436.943379
PG01  13315.068314 -22222.709213  -5269.985116    277.583472
PG02 -15253.044780  21795.895921  -1169.481609   -644.723839
PG03  11229.445072 -12573.079228 -20622.353465   -356.691099
PG04   3699.842171 -21205.065161 -15493.692910   -113.123194
PG05 -21717.273978   7329.592641  13354.223869    -98.075076
PG06 -15504.957629  -2989.132043 -21307.704403    472.816997
PG07    162.327116 -20270.588274  17319.134036    304.437617
PG08  10031.406406 -13101.498846  20693.448321    -86.177845
PG09  -6240.395403 -25112.888217  -5975.280455   -291.327333
PG10  20458.749042  11535.521064  12848.257482     -4.891847
PG11 -20377.696257   7243.893662 -15393.215361    -19.606641
PG12 -12568.724803  11767.997289 -20461.647702   -284.256941
PG13 -14373.547984   4122.931585  21780.235995    394.602637
PG14 -18497.252205 -13226.960704  13822.461963   -100.672497
PG15  -8745.958240  14559.310489  19914.780361    -25.949414
PG16  25412.610456     16.451710   8213.212041   -525.066650
PG17 -12756.483818 -21832.748276  -7583.447253    662.827670
PG18    -77.641362  19543.561647  17916.094875     35.870335
PG19 -15742.480355 -13813.186519 -16724.240554    215.671836
PG20 -26419.821794    833.264698    220.444233    483.367900
PG21  17066.304920 -19227.303560   5456.392534    158.941681
PG22  16267.469749  11082.197599 -17497.058957    334.578499
PG23  10809.022448  14563.364500  19436.963736     -0.459720
PG24 -14090.789718  22240.044363   -439.989251    122.392748
PG25   1006.458603  15642.849376 -21750.765834    376.001070
PG26  26445.517159   3460.048609  -1951.661050    230.077577
PG27  15709.479590    -17.676549  21257.531858    207.040114
PG28 -23709.392877 -10070.534052   6420.615832    335.461297
PG29   3383.204032  25414.859176  -6809.963023   -554.683054
PG30  -9749.629291 -12800.833627  21196.285591   -537.149795
PG31  16886.496028   2343.225274 -20617.098731   -194.680056
PG32  15593.833812  19068.764653 -10034.524005   -244.524557
PJ02 -32512.960018  15707.417023 -17143.073084     -5.828520
PJ03 -22552.410670  31534.895877 -11919.284615     -2.057239
PR01 -14867.612542 -18769.698523  -8812.667217     15.307371
PR02 -19911.321685 -12004.469211  10450.432981    -22.783712
PR03 -13033.654804   2036.332460  21857.338361     64.381016
PR04   1028.743871  14433.247665  21031.836845    158.942269
PR05  14442.281255  19176.079645   8669.263801    100.227171
PR07  12584.636060  -2540.568119 -22019.110171     41.577393
PR08  -1140.057470 -14547.052552 -20863.391800    -67.375551
PR09  21899.129201   -559.230081 -12981.482961     78.721353
PR11  12278.550780 -13062.552167  18152.722282     26.334306
PR12  -7441.856814  -9040.147414  22690.490003     21.595410
PR13 -21124.180798   -282.210421  14286.181491    -27.190679
PR14 -23355.293400   9493.086986  -3928.798002     24.226932
PR15 -11489.570948  13009.124006 -18669.322786     93.520998
PR17 -11586.174781  14063.305612 -17818.383958    564.047715
PR18  -7303.056135  24265.162813  -3088.054145     44.201860
PR19   -471.445152  22389.213300  12199.665797   -205.046789
PR20   9133.050940   5522.391282  23177.415731    -79.065330
PR21  11451.489263 -15485.896321  16745.611312   -336.703143
PR24  -9946.560141  -4650.144571 -23008.753012    116.739006
PR25   8020.993916 -24093.827857   2406.540461     13.578075
EOF
